[{"OBJECT_NAME":"OBJECT L","OBJECT_ID":"2023-085L","EPOCH":"2026-03-09T23:02:21.999840","MEAN_MOTION":15.29079976,"ECCENTRICITY":0.0005428,"INCLINATION":97.486,"RA_OF_ASC_NODE":178.8598,"ARG_OF_PERICENTER":50.8528,"MEAN_ANOMALY":309.3193,"EPHEMERIS_TYPE":0,"CLASSIFICATION_TYPE":"U","NORAD_CAT_ID":57014,"ELEMENT_SET_NO":999,"REV_AT_EPOCH":15144,"BSTAR":0.00063462603,"MEAN_MOTION_DOT":0.00017871,"MEAN_MOTION_DDOT":0},{"OBJECT_NAME":"STARLINK-35721","OBJECT_ID":"2025-294S","EPOCH":"2026-03-09T22:18:09.310752","MEAN_MOTION":15.2759165,"ECCENTRICITY":6.833e-5,"INCLINATION":42.9958,"RA_OF_ASC_NODE":36.903,"ARG_OF_PERICENTER":147.3179,"MEAN_ANOMALY":212.7715,"EPHEMERIS_TYPE":0,"CLASSIFICATION_TYPE":"U","NORAD_CAT_ID":67046,"ELEMENT_SET_NO":999,"REV_AT_EPOCH":1483,"BSTAR":0.00099268294,"MEAN_MOTION_DOT":0.00027165,"MEAN_MOTION_DDOT":0}]
